satname,norad_id,inclination_deg,eccentricity,mean_motion_rev_per_day,perigee_km,apogee_km,l1,l2
STARLINK-1554,46055,53.1598,0.0001068,15.3169781,470.01506274915755,471.47798426977806,1 46055U 20055AE  26145.19053699  .00000713  00000+0  34746-4 0  9990,2 46055  53.1598 118.2267 0001068  85.5676 274.5447 15.31697810320797
STARLINK-1564,46058,53.1585,0.0001414,15.30192138,474.2694767327721,476.2076113366238,1 46058U 20055AH  26145.29719013 -.00000073  00000+0  96524-5 0  9996,2 46058  53.1585 118.5323 0001414  88.7142 271.4021 15.30192138320796
STARLINK-1570,46059,53.1595,0.0001001,15.31704444,470.04117666375623,471.41231918609174,1 46059U 20055AJ  26145.21848430  .00000013  00000+0  12171-4 0  9993,2 46059  53.1595 117.9783 0001001  90.4587 269.6529 15.31704444320754
STARLINK-1572,46060,53.1586,9.05e-05,15.30177323,474.6625451999071,475.9030141800313,1 46060U 20055AK  26145.21289557 -.00001134  00000+0 -26201-4 0  9990,2 46060  53.1586 118.6729 0000905  81.8124 278.2979 15.30177323320751
STARLINK-1573,46061,53.1602,0.0001084,15.31704655,469.983702185923,471.4685357101107,1 46061U 20055AL  26145.33500096 -.00000285  00000+0  25697-5 0  9992,2 46061  53.1602 117.4033 0001084  85.2072 274.9054 15.31704655320814
STARLINK-1577,46063,53.1605,0.0001288,15.31699072,469.86062583346757,471.6248972600415,1 46063U 20055AN  26145.36296368  .00000344  00000+0  22862-4 0  9996,2 46063  53.1605 117.2694 0001288 111.2800 248.8339 15.31699072320817
STARLINK-1583,46064,53.1607,0.0001522,15.30191141,474.19843671320996,476.28460513498067,1 46064U 20055AP  26145.30764455 -.00000732  00000+0 -12586-4 0  9993,2 46064  53.1607 117.9812 0001522  89.1359 270.9816 15.30191141320798
STARLINK-1536,46070,53.1591,9.55e-05,15.31702426,470.07869639302135,471.3868305178412,1 46070U 20055AV  26145.31305154  .00000814  00000+0  37985-4 0  9997,2 46070  53.1591 105.3880 0000955  87.5735 272.5375 15.31702426320975
STARLINK-1542,46073,53.1621,0.0001252,15.31702579,469.87482893435117,471.58978580891744,1 46073U 20055AY  26145.33742162 -.00000239  00000+0  40747-5 0  9999,2 46073  53.1621 108.2415 0001252  93.0013 267.1132 15.31702579320925
STARLINK-1549,46074,53.0508,0.0004076,15.28160931,478.51422007450674,484.10604137547307,1 46074U 20055AZ  26145.59793134  .00035831  00000+0  12942-2 0  9991,2 46074  53.0508 104.0724 0004076  63.2642 296.8774 15.28160931320994
STARLINK-1551,46075,53.1615,0.000131,15.30183404,474.3668269191867,476.1624181442912,1 46075U 20055BA  26145.61471776 -.00000744  00000+0 -13006-4 0  9991,2 46075  53.1615 103.7566 0001310  77.3634 282.7514 15.30183404321013
STARLINK-1552,46076,53.1614,0.0001225,15.31711552,469.86657631764865,471.5445427447339,1 46076U 20055BB  26145.61626489 -.00000683  00000+0 -10225-4 0  9997,2 46076  53.1614 103.4960 0001225  93.2647 266.8495 15.31711552321006
STARLINK-1559,46077,53.0232,0.0002854,15.36808596,453.6034014891093,457.5040721616897,1 46077U 20055BC  26145.53412537  .00045572  00000+0  12515-2 0  9992,2 46077  53.0232  74.1260 0002854  59.4836 300.6447 15.36808596321376
STARLINK-1566,46079,53.1598,0.0001085,15.31675389,470.07024920424647,471.5564714324355,1 46079U 20055BE  26145.29467363 -.00007563  00000+0 -23237-3 0  9998,2 46079  53.1598 104.8459 0001085  72.8836 287.2284 15.31675389320970
STARLINK-1568,46080,53.0604,0.0004283,15.52745526,405.80722678257916,411.6208433792308,1 46080U 20055BF  26145.04668342  .00041282  00000+0  66044-3 0  9990,2 46080  53.0604  26.8370 0004283  54.9591 305.1820 15.52745526322035
STARLINK-1578,46082,53.1585,0.0001417,15.31716388,469.7206649379805,471.66162283395806,1 46082U 20055BH  26145.58335648 -.00013951  00000+0 -43839-3 0  9992,2 46082  53.1585 104.0198 0001417  86.6499  42.0299 15.31716388  5854
STARLINK-1579,46083,53.1617,0.0001432,15.31697775,469.7658677073905,471.7273879784034,1 46083U 20055BJ  26145.61159796  .00002284  00000+0  85366-4 0  9992,2 46083  53.1617 103.4229 0001432 102.9997 257.1164 15.31697775321018
STARLINK-1622,46128,53.0167,0.0007015,15.79672615,326.66078142447986,336.07421623633854,1 46128U 20057M   26145.45152892  .00141273  00000+0  74643-3 0  9993,2 46128  53.0167 203.4852 0007015  15.6551 344.4685 15.79672615319438
STARLINK-1623,46129,53.0433,0.0004534,15.71604149,351.25937340310884,357.36435803454333,1 46129U 20057N   26145.53113350  .00090481  00000+0  68670-3 0  9996,2 46129  53.0433 240.3625 0004534 348.7076  11.3839 15.71604149318932
STARLINK-1624,46130,53.0175,0.0009152,16.28421628,190.7675563446055,202.80229343592327,1 46130U 20057P   26146.09407270  .04383853  12083-4  10730-2 0  9991,2 46130  53.0175 200.9745 0009152 328.9465  31.1035 16.28421628320770
STARLINK-1596,46141,53.036,0.0006313,15.56944734,392.2285809771611,400.7822444874773,1 46141U 20057AA  26145.49176299  .00079661  00000+0  10812-2 0  9997,2 46141  53.0360 221.6005 0006313 345.8094  14.2738 15.56944734319193
STARLINK-1597,46142,53.0428,0.0002097,15.71129117,354.2567587116937,357.08091688006516,1 46142U 20057AB  26144.80604590  .00094993  00000+0  73511-3 0  9993,2 46142  53.0428 283.6765 0002097  22.2105 337.9002 15.71129117318256
STARLINK-1606,46144,53.0362,0.000734,15.84146446,313.8137164214959,323.64471602691356,1 46144U 20057AD  26145.58335648  .00203912  00000+0  86734-3 0  9990,2 46144  53.0362 234.2607 0007340 328.3748 235.5172 15.84146446  5994
STARLINK-1608,46146,53.1598,0.0001679,15.34553686,461.09799076231684,463.39499153864654,1 46146U 20057AF  26145.44181179  .00045881  00000+0  13541-2 0  9999,2 46146  53.1598 311.9587 0001679 280.1942  79.8871 15.34553686317947
STARLINK-1667,46155,53.0137,0.0008721,15.83590008,314.45617167188175,326.1395817838711,1 46155U 20057AQ  26145.58335648  .00236094  00000+0  10260-2 0  9999,2 46155  53.0137 202.4909 0008721  15.0310 168.6051 15.83590008  5995
STARLINK-1545,46156,53.0411,0.0005447,15.78414446,331.27588912346255,338.58910703467063,1 46156U 20057AR  26145.58335648  .00148711  00000+0  83128-3 0  9992,2 46156  53.0411 238.1757 0005447 311.5710 127.8825 15.78414446  5933
STARLINK-1595,46159,53.0435,0.0002237,15.69462618,358.927337493099,361.94217449673215,1 46159U 20057AU  26145.64779297  .00091106  00000+0  75618-3 0  9994,2 46159  53.0435 282.0651 0002237 357.0540   3.0463 15.69462618319613
STARLINK-1598,46160,53.0454,0.0002917,15.69309083,358.90849606563734,362.8400352380186,1 46160U 20057AV  26145.04783963  .00083565  00000+0  69898-3 0  9998,2 46160  53.0454 271.1701 0002917 156.1690 203.9461 15.69309083319705
